STARLINK-1559           
1 46077U 20055BC  26068.23360559  .00042685  00000+0  14779-2 0  9995
2 46077  53.0254  76.0659 0004229  33.9710 326.1559 15.29461733309518
STARLINK-33893          
1 64253U 25119W   26068.01363454  .00034589  00000+0  12599-2 0  9992
2 64253  42.9969 311.0709 0001277 280.8883  79.1825 15.27597675 44066
